{
    "links": {
        "self": "http://www.neowsapp.com/rest/v1/neo/3745030?api_key=iIulBulltgU6a56xZRHN4H3l9WmuAYTsLGpBGhQ2"
    },
    "id": "3745030",
    "neo_reference_id": "3745030",
    "name": "(2016 EE1)",
    "designation": "2016 EE1",
    "nasa_jpl_url": "http://ssd.jpl.nasa.gov/sbdb.cgi?sstr=3745030",
    "absolute_magnitude_h": 24.5,
    "estimated_diameter": {
        "kilometers": {
            "estimated_diameter_min": 0.0334622374,
            "estimated_diameter_max": 0.0748238376
        },
        "meters": {
            "estimated_diameter_min": 33.4622374455,
            "estimated_diameter_max": 74.8238376074
        },
        "miles": {
            "estimated_diameter_min": 0.0207924639,
            "estimated_diameter_max": 0.0464933628
        },
        "feet": {
            "estimated_diameter_min": 109.7842471007,
            "estimated_diameter_max": 245.4850393757
        }
    },
    "is_potentially_hazardous_asteroid": false,
    "close_approach_data": [
        {
            "close_approach_date": "1958-08-25",
            "close_approach_date_full": "1958-Aug-25 18:48",
            "epoch_date_close_approach": -358233120000,
            "relative_velocity": {
                "kilometers_per_second": "18.5647905149",
                "kilometers_per_hour": "66833.2458537217",
                "miles_per_hour": "41527.5799028306"
            },
            "miss_distance": {
                "astronomical": "0.0816976678",
                "lunar": "31.7803927742",
                "kilometers": "12221797.086847586",
                "miles": "7594272.5586692468"
            },
            "orbiting_body": "Mars"
        },
        {
            "close_approach_date": "1958-10-07",
            "close_approach_date_full": "1958-Oct-07 12:01",
            "epoch_date_close_approach": -354542340000,
            "relative_velocity": {
                "kilometers_per_second": "28.4902929474",
                "kilometers_per_hour": "102565.0546107563",
                "miles_per_hour": "63729.9362941113"
            },
            "miss_distance": {
                "astronomical": "0.4978888286",
                "lunar": "193.6787543254",
                "kilometers": "74483108.255355082",
                "miles": "46281657.3609088516"
            },
            "orbiting_body": "Earth"
        },
        {
            "close_approach_date": "2016-02-28",
            "close_approach_date_full": "2016-Feb-28 23:22",
            "epoch_date_close_approach": 1456701720000,
            "relative_velocity": {
                "kilometers_per_second": "15.091556345",
                "kilometers_per_hour": "54329.6028420626",
                "miles_per_hour": "33758.3023881694"
            },
            "miss_distance": {
                "astronomical": "0.018080736",
                "lunar": "7.033406304",
                "kilometers": "2704839.59363232",
                "miles": "1680709.387953216"
            },
            "orbiting_body": "Earth"
        }
    ],
    "orbital_data": {
        "orbit_id": "7",
        "orbit_determination_date": "2017-08-10 06:19:43",
        "first_observation_date": "2016-02-29",
        "last_observation_date": "2016-03-13",
        "data_arc_in_days": 13,
        "observations_used": 46,
        "orbit_uncertainty": "8",
        "minimum_orbit_intersection": ".0165064",
        "jupiter_tisserand_invariant": "3.319",
        "epoch_osculation": "2457451.5",
        "eccentricity": ".6393709952113876",
        "semi_major_axis": "2.245522804722572",
        "inclination": "7.499491166835812",
        "ascending_node_longitude": "151.9644883915135",
        "orbital_period": "1229.064378342307",
        "perihelion_distance": ".8098006542972348",
        "perihelion_argument": "309.8919759740348",
        "aphelion_distance": "3.68124495514791",
        "perihelion_time": "2457409.411411909033",
        "mean_anomaly": "12.32798865522743",
        "mean_motion": ".2929057308499558",
        "equinox": "J2000",
        "orbit_class": {
            "orbit_class_type": "APO",
            "orbit_class_description": "Near-Earth asteroid orbits which cross the Earth’s orbit similar to that of 1862 Apollo",
            "orbit_class_range": "a (semi-major axis) > 1.0 AU; q (perihelion) < 1.017 AU"
        }
    },
    "is_sentry_object": false
}